[{"OBJECT_NAME":"CSTP 1.2 (STC 1.2)","OBJECT_ID":"2023-091W","EPOCH":"2026-03-09T23:12:27.821952","MEAN_MOTION":15.2718076,"ECCENTRICITY":0.00204388,"INCLINATION":97.5258,"RA_OF_ASC_NODE":134.3262,"ARG_OF_PERICENTER":84.9592,"MEAN_ANOMALY":275.3979,"EPHEMERIS_TYPE":0,"CLASSIFICATION_TYPE":"U","NORAD_CAT_ID":57186,"ELEMENT_SET_NO":999,"REV_AT_EPOCH":14930,"BSTAR":0.00043035718,"MEAN_MOTION_DOT":0.00011466,"MEAN_MOTION_DDOT":0},{"OBJECT_NAME":"STARLINK-32040","OBJECT_ID":"2024-117U","EPOCH":"2026-03-09T04:20:56.234688","MEAN_MOTION":15.30194485,"ECCENTRICITY":0.00013062,"INCLINATION":53.161,"RA_OF_ASC_NODE":39.1294,"ARG_OF_PERICENTER":89.9247,"MEAN_ANOMALY":270.1903,"EPHEMERIS_TYPE":0,"CLASSIFICATION_TYPE":"U","NORAD_CAT_ID":60109,"ELEMENT_SET_NO":999,"REV_AT_EPOCH":9681,"BSTAR":-1.3599428e-5,"MEAN_MOTION_DOT":-7.62e-6,"MEAN_MOTION_DDOT":0}]
